ORBCOMM FM115           
1 41186U 15081H   25020.39683210  .00002158  00000+0  46092-3 0  9995
2 41186  47.0000  22.2046 0000501 337.7917  22.2948 14.61973445486146
ORBCOMM FM108           
1 41187U 15081J   25020.55849019  .00002629  00000+0  60741-3 0  9995
2 41187  47.0041  83.9371 0003101 327.2362  32.8331 14.57664267485331
ORBCOMM FM117           
1 41188U 15081K   25020.52492719  .00002836  00000+0  65238-3 0  9990
2 41188  47.0003  82.9092 0003285 337.8086  22.2657 14.57664466485292
ORBCOMM FM116           
1 41189U 15081L   25020.85801401  .00001981  00000+0  46677-3 0  9995
2 41189  47.0007 171.1888 0001045 124.5796 235.5188 14.57673483484153
